
STARLINK-3897           
1 52537U 22051E   24346.46973866 -.00000301  00000+0 -78610-6 0  9993
2 52537  53.2189   3.5096 0001678  96.5889 263.5294 15.08833488143098
STARLINK-3933           
1 52538U 22051F   24346.74575723 -.00000560  00000+0 -17071-4 0  9994
2 52538  53.2186   2.4648 0001541  94.8017 265.3151 15.08842546143064
STARLINK-3757           
1 52539U 22051G   24346.74944213  .00000174  00000+0  29001-4 0  9994
2 52539  53.2186   2.4494 0001506  94.2043 265.9121 15.08834933143062
STARLINK-3940           
1 52540U 22051H   24346.47344516 -.00000138  00000+0  94543-5 0  9991
2 52540  53.2190   3.7228 0001557  88.6125 271.5046 15.08836133143098
STARLINK-3845           
1 52541U 22051J   24346.76921983 -.00001257  00000+0 -60909-4 0  9995
2 52541  53.2179   7.3593 0001714  81.2744 278.8442 15.08828058142997
STARLINK-3937           
1 52542U 22051K   24346.33359865  .00001053  00000+0  84221-4 0  9998
2 52542  53.2176   4.3142 0001539  94.9256 265.1912 15.08841143143000
STARLINK-3926           
1 52543U 22051L   24346.74208319 -.00000702  00000+0 -25994-4 0  9995
2 52543  53.2209   2.4812 0001697 100.8286 259.2898 15.08834888143067
STARLINK-3944           
1 52544U 22051M   24347.09306677 -.00000356  00000+0 -42498-5 0  9995
2 52544  53.2193   5.9183 0001498  98.2058 261.9104 15.08837467143117
STARLINK-3948           
1 52546U 22051P   24346.76877481 -.00000365  00000+0 -48076-5 0  9994
2 52546  53.2194   2.1301 0001751  86.1199 273.9993 15.08836864143079
STARLINK-3869           
1 52547U 22051Q   24346.91667824  .01266567  00000+0  56101-1 0  9991
2 52547  53.2171   6.5832 0001147  81.1677  87.6768 15.18026289  5796
STARLINK-3931           
1 52548U 22051R   24346.77519793 -.00001142  00000+0 -53649-4 0  9991
2 52548  53.2192   2.3303 0001777  85.5354 274.5842 15.08844611143076
STARLINK-3935           
1 52549U 22051S   24347.05856797  .00004242  00000+0  28442-3 0  9996
2 52549  53.2171   1.0565 0001392  94.6662 265.4490 15.08841722143186
STARLINK-3965           
1 52550U 22051T   24346.78255977 -.00000123  00000+0  10374-4 0  9991
2 52550  53.2190   2.2971 0001517  90.8154 269.3012 15.08841999143073
STARLINK-3969           
1 52551U 22051U   24347.05487109 -.00001791  00000+0 -94471-4 0  9990
2 52551  53.2179   1.0756 0001303 103.0419 257.0719 15.08831257143189
STARLINK-3966           
1 52552U 22051V   24346.78625934  .00000712  00000+0  62816-4 0  9998
2 52552  53.2177   2.4350 0001624  92.2023 267.9155 15.08839931143078
STARLINK-3858           
1 52553U 22051W   24346.75307823 -.00001014  00000+0 -45650-4 0  9995
2 52553  53.2180   2.0937 0001595  89.6767 270.4407 15.08836312143071
STARLINK-3770           
1 52554U 22051X   24346.75818060 -.00000426  00000+0 -87006-5 0  9994
2 52554  53.2188   7.4065 0001566  92.1123 268.0048 15.08838782142991
STARLINK-3949           
1 52555U 22051Y   24346.72799603  .00085805  00000+0  29013-2 0  9996
2 52555  53.2314 345.4059 0003201   4.3422 355.7606 15.29914035143316
STARLINK-3763           
1 52556U 22051Z   24346.96366404  .00023381  00000+0  10301-2 0  9993
2 52556  53.2087 338.1558 0000424  15.2337 344.8674 15.21734574143502
STARLINK-3943           
1 52557U 22051AA  24346.76783093 -.00006495  00000+0 -38998-3 0  9991
2 52557  53.2207   2.3624 0001782  70.6800 289.4385 15.08871430143140
STARLINK-3954           
1 52558U 22051AB  24346.90124265  .00014188  00000+0  90959-3 0  9999
2 52558  53.2189 351.7653 0002102  94.5648 265.5585 15.08763959143294
STARLINK-3953           
1 52559U 22051AC  24347.04478773 -.00000220  00000+0  42648-5 0  9999
2 52559  53.2189 351.3038 0001603  99.6131 260.5042 15.08832293143310
STARLINK-3956           
1 52560U 22051AD  24346.76508147  .00007898  00000+0  51377-3 0  9992
2 52560  53.2159 352.3765 0001460  93.0039 267.1120 15.08841116143205
STARLINK-3955           
1 52561U 22051AE  24346.34969722  .00001933  00000+0  13958-3 0  9994
2 52561  53.2180   9.2399 0001261  95.3907 264.7229 15.08824297143001
STARLINK-3957           
1 52562U 22051AF  24346.75770872  .00006838  00000+0  44709-3 0  9993
2 52562  53.2162 352.4083 0001599  93.3053 266.8122 15.08857978143208
STARLINK-3942           
1 52563U 22051AG  24347.08202491 -.00000192  00000+0  60025-5 0  9997
2 52563  53.2177   5.9549 0001564  99.2319 260.8850 15.08832122143110
STARLINK-3959           
1 52564U 22051AH  24346.47946266 -.00000200  00000+0  55334-5 0  9992
2 52564  53.2171   8.6704 0001405  84.5008 275.6144 15.08835165143024
STARLINK-3911           
1 52565U 22051AJ  24346.76140537  .00001041  00000+0  83490-4 0  9998
2 52565  53.2175 352.3933 0001651  86.4608 273.6573 15.08836667143204
STARLINK-3938           
1 52566U 22051AK  24346.78761345 -.00007877  00000+0 -47696-3 0  9999
2 52566  53.2193   7.2739 0001668  75.3773 284.7404 15.08871195143002
STARLINK-3929           
1 52567U 22051AL  24347.01900053  .00000233  00000+0  32765-4 0  9997
2 52567  53.2188 351.2355 0001716  85.4054 274.7134 15.08846920143312
STARLINK-3930           
1 52568U 22051AM  24346.74300442  .00000182  00000+0  29524-4 0  9995
2 52568  53.2190 352.4780 0001442  89.9740 270.1418 15.08841128143206
STARLINK-3927           
1 52569U 22051AN  24346.75036120  .00000543  00000+0  52224-4 0  9990
2 52569  53.2183 352.4433 0001507  88.8044 271.3121 15.08838683143207
STARLINK-3924           
1 52570U 22051AP  24346.91667824  .01104758  54649-3  33863-2 0  9993
2 52570  53.2167 340.9857 0001652  95.6896 182.4242 15.91399172  5889
STARLINK-3901           
1 52574U 22051AQ  24347.01164406  .00001477  00000+0  11089-3 0  9995
2 52574  53.2179 351.2705 0001696  86.4870 273.6316 15.08837547143318
STARLINK-3920           
1 52575U 22051AR  24346.73564444 -.00000256  00000+0  20070-5 0  9997
2 52575  53.2188 352.5108 0001502  86.5518 273.5646 15.08836300143205
STARLINK-3932           
1 52576U 22051AS  24346.72923764 -.00000779  00000+0 -30878-4 0  9998
2 52576  53.2206 352.5428 0001691 102.0301 258.0880 15.08836988143272
STARLINK-3836           
1 52577U 22051AT  24346.78026207  .00000097  00000+0  24206-4 0  9990
2 52577  53.2177   7.3097 0001647  86.3884 273.7297 15.08837975143002
STARLINK-3833           
1 52578U 22051AU  24347.04893342 -.00001717  00000+0 -89915-4 0  9993
2 52578  53.2175   6.1039 0001185  94.4223 265.6904 15.08808381143114
STARLINK-3893           
1 52579U 22051AV  24346.50794556 -.00001577  00000+0 -81032-4 0  9997
2 52579  53.2191   8.5329 0001564  90.0272 270.0899 15.08834452143030
STARLINK-3919           
1 52580U 22051AW  24346.77753913  .00000703  00000+0  62239-4 0  9996
2 52580  53.2187   7.3346 0001561  98.4643 261.6527 15.08839896143079
STARLINK-3915           
1 52581U 22051AX  24347.05580448  .00000935  00000+0  76831-4 0  9990
2 52581  53.2212 351.0758 0001656 102.5459 257.5719 15.08832219143329
STARLINK-3886           
1 52582U 22051AY  24346.91667824  .00715049  00000+0  31824-2 0  9999
2 52582  53.2162 341.5825 0001176  89.8874 294.8641 15.81891859  5880
STARLINK-3895           
1 52583U 22051AZ  24346.98588337  .00000035  00000+0  20286-4 0  9992
2 52583  53.2206 351.3877 0001476  90.9001 269.2161 15.08833957143312
STARLINK-3922           
1 52584U 22051BA  24346.72828333 -.00000231  00000+0  35946-5 0  9997
2 52584  53.2196 352.5469 0001751 100.1595 259.9595 15.08833882143278
STARLINK-3906           
1 52585U 22051BB  24346.44491856 -.00000840  00000+0 -34686-4 0  9999
2 52585  53.2191 353.7739 0001606 101.6645 258.4527 15.08832937143165
STARLINK-3910           
1 52586U 22051BC  24347.04844203  .00004302  00000+0  28838-3 0  9991
2 52586  53.2221 351.1132 0001949 102.6868 257.4342 15.08818413143322
STARLINK-3867           
1 52587U 22051BD  24346.76234189 -.00001120  00000+0 -52305-4 0  9990
2 52587  53.2206 352.2399 0001720 107.5815 252.5365 15.08836931143210
STARLINK-3917           
1 52588U 22051BE  24346.30875854  .00000423  00000+0  44696-4 0  9998
2 52588  53.2179 354.4245 0001509  96.1215 263.9950 15.08840103143218
STARLINK-4019           
1 52598U 22052A   24346.74438000  .00000130  00000+0  26289-4 0  9999
2 52598  53.2141 157.4691 0001419  90.8438 269.2717 15.08838999143201
STARLINK-4024           
1 52599U 22052B   24346.86445110  .00000122  00000+0  25757-4 0  9993
2 52599  53.2159 152.0371 0001476  86.5010 273.6151 15.08842666143294
STARLINK-4026           
1 52600U 22052C   24346.84236191  .00000134  00000+0  26514-4 0  9996
2 52600  53.2175 152.0294 0001471  82.8440 277.2719 15.08836997142862
STARLINK-4027           
1 52601U 22052D   24346.84972054  .00000242  00000+0  33328-4 0  9993
2 52601  53.2167 151.9980 0001495  91.1392 268.9771 15.08835102143299
STARLINK-4012           
1 52602U 22052E   24346.91228343  .00000483  00000+0  48414-4 0  9996
2 52602  53.2169 151.7170 0001525  95.0388 265.0778 15.08836572143302
STARLINK-4016           
1 52603U 22052F   24347.16347937  .00000670  00000+0  60164-4 0  9990
2 52603  53.2177 150.5976 0001519  90.6476 269.4690 15.08836950142912
STARLINK-4013           
1 52604U 22052G   24346.90491931  .00000712  00000+0  62817-4 0  9990
2 52604  53.2165 151.7483 0001306  92.2492 267.8650 15.08840082142500
STARLINK-4000           
1 52605U 22052H   24346.71955220  .00002061  00000+0  14758-3 0  9995
2 52605  53.2156 157.3597 0001585 102.1680 257.9489 15.08831162142406
STARLINK-3928           
1 52606U 22052J   24347.16619766 -.00001721  00000+0 -90039-4 0  9999
2 52606  53.2159 150.5751 0001338  92.8649 267.2496 15.08843222142911
STARLINK-3947           
1 52607U 22052K   24346.80053334 -.00005282  00000+0 -31386-3 0  9998
2 52607  53.2171 157.2283 0001541  84.8693 275.2475 15.08860335142781
